PROGRESS-MS 34          
1 68837U 26093A   26116.23503560  .00040100  00000+0  20343-3 0  9991
2 68837  51.6342 197.6499 0010098  15.4664 344.6644 15.81015064    28
